<?xml version="1.0" encoding="UTF-8"?>
<response xmlns:xsd="http://www.w3.org/2001/XMLSchema" xmlns:xsi="http://www.w3.org/2001/XML-Schema-instance" version="1.2" xsi:noNamespaceSchemaLocation="http://aviationweather.gov/adds/schema/metar1_2.xsd">
  <request_index>6891329</request_index>
  <data_source name="metars"/>
  <request type="retrieve"/>
  <errors/>
  <warnings/>
  <time_taken_ms>7</time_taken_ms>
  <data num_results="2">
    <METAR>
      <raw_text>KFME 201348Z AUTO 33006KT 10SM CLR M04/M10 A3037 RMK AO1</raw_text>
      <station_id>KFME</station_id>
      <observation_time>2020-01-20T13:48:00Z</observation_time>
      <latitude>39.08</latitude>
      <longitude>-76.77</longitude>
      <temp_c>-4.0</temp_c>
      <dewpoint_c>-10.0</dewpoint_c>
      <wind_dir_degrees>330</wind_dir_degrees>
      <wind_speed_kt>6</wind_speed_kt>
      <visibility_statute_mi>10.0</visibility_statute_mi>
      <altim_in_hg>30.369095</altim_in_hg>
      <quality_control_flags>
        <auto>TRUE</auto>
        <auto_station>TRUE</auto_station>
      </quality_control_flags>
      <sky_condition sky_cover="CLR"/>
      <flight_category>VFR</flight_category>
      <metar_type>METAR</metar_type>
      <elevation_m>46.0</elevation_m>
    </METAR>
    <METAR>
      <raw_text>KFME 201327Z AUTO 34003KT 10SM CLR M05/M10 A3036 RMK AO1</raw_text>
      <station_id>KFME</station_id>
      <observation_time>2020-01-20T13:27:00Z</observation_time>
      <latitude>39.08</latitude>
      <longitude>-76.77</longitude>
      <temp_c>-5.0</temp_c>
      <dewpoint_c>-10.0</dewpoint_c>
      <wind_dir_degrees>340</wind_dir_degrees>
      <wind_speed_kt>3</wind_speed_kt>
      <visibility_statute_mi>10.0</visibility_statute_mi>
      <altim_in_hg>30.360237</altim_in_hg>
      <quality_control_flags>
        <auto>TRUE</auto>
        <auto_station>TRUE</auto_station>
      </quality_control_flags>
      <sky_condition sky_cover="CLR"/>
      <flight_category>VFR</flight_category>
      <metar_type>METAR</metar_type>
      <elevation_m>46.0</elevation_m>
    </METAR>
  </data>
</response>